[{"OBJECT_NAME":"STARLINK-4153","OBJECT_ID":"2022-076BD","EPOCH":"2026-03-09T06:41:51.426816","MEAN_MOTION":15.08840886,"ECCENTRICITY":0.000124,"INCLINATION":53.2173,"RA_OF_ASC_NODE":75.9618,"ARG_OF_PERICENTER":83.7396,"MEAN_ANOMALY":276.3738,"EPHEMERIS_TYPE":0,"CLASSIFICATION_TYPE":"U","NORAD_CAT_ID":53037,"ELEMENT_SET_NO":999,"REV_AT_EPOCH":20306,"BSTAR":4.033351e-5,"MEAN_MOTION_DOT":3.54e-6,"MEAN_MOTION_DDOT":0},{"OBJECT_NAME":"KUIPER-00148","OBJECT_ID":"2025-217H","EPOCH":"2026-03-09T06:36:19.446048","MEAN_MOTION":15.09536529,"ECCENTRICITY":0.00081087,"INCLINATION":51.8794,"RA_OF_ASC_NODE":26.5769,"ARG_OF_PERICENTER":351.8096,"MEAN_ANOMALY":8.2745,"EPHEMERIS_TYPE":0,"CLASSIFICATION_TYPE":"U","NORAD_CAT_ID":65769,"ELEMENT_SET_NO":999,"REV_AT_EPOCH":2507,"BSTAR":0.00098730243,"MEAN_MOTION_DOT":0.00015783,"MEAN_MOTION_DDOT":0}]
